GLOBALSTAR M084 [+]     
1 38040U 11080A   24073.56150130 -.00000088  00000+0  85628-4 0  9991
2 38040  52.0038  10.7850 0000754  89.2904  82.6876 12.62271855564498
GLOBALSTAR M080 [+]     
1 38041U 11080B   24073.61459303 -.00000094  00000+0  55644-4 0  9994
2 38041  52.0088  12.0695 0000928  81.5631  90.9464 12.62269685564629
GLOBALSTAR M082 [+]     
1 38042U 11080C   24073.46909328 -.00000070  00000+0  18650-3 0  9994
2 38042  52.0094 327.9129 0000093  56.6508 114.5463 12.62266763565319
GLOBALSTAR M092 [+]     
1 38043U 11080D   24073.44207642 -.00000108  00000+0 -24522-4 0  9992
2 38043  52.0094  58.3436 0000495 114.9242  53.0393 12.62276791563763
GLOBALSTAR M090 [+]     
1 38044U 11080E   24073.41605596 -.00000072  00000+0  17718-3 0  9997
2 38044  51.9902 322.4752 0000430  66.2917 104.8359 12.62267042565424
GLOBALSTAR M086 [+]     
1 38045U 11080F   24073.44251194 -.00000075  00000+0  15857-3 0  9997
2 38045  51.9913 322.9109 0001433  42.5953 128.2032 12.62268187565372
GLOBALSTAR M097 [+]     
1 39072U 13005A   24073.43137977 -.00000101  00000+0  16578-4 0  9990
2 39072  52.0024 237.0208 0000692  77.9511 282.1434 12.62261720512624
GLOBALSTAR M093 [+]     
1 39073U 13005B   24073.16726655 -.00000100  00000+0  18493-4 0  9995
2 39073  51.9788 231.8651 0000643  72.3052 287.7885 12.62262030512546
